[
    {
        "Altitude(m)": 604983.053083639,
        "Argument of Periapsis(deg)": 0.0,
        "Eccentricity": 0.0,
        "Inclination(deg)": 60.0,
        "Latitude(deg)": -0.09274343348421224,
        "Longitude(deg)": -94.91608365215446,
        "Mean Anomaly(deg)": -180.0,
        "RAAN(deg)": 184.99999999999997,
        "Satellite Name": "Test1 825",
        "Satellite Number": 825,
        "Semi-Major Axis(m)": 6980739.136638005,
        "Time(s)": 0
    },
    {
        "Altitude(m)": 605055.3332122158,
        "Argument of Periapsis(deg)": 0.00010418945913296404,
        "Eccentricity": 0.0,
        "Inclination(deg)": 60.0,
        "Latitude(deg)": -0.6331534620103952,
        "Longitude(deg)": -94.64795904566338,
        "Mean Anomaly(deg)": -179.37989385453815,
        "RAAN(deg)": 184.99957995086024,
        "Satellite Name": "Test1 825",
        "Satellite Number": 825,
        "Semi-Major Axis(m)": 6980739.136638005,
        "Time(s)": 10
    }
]